{
    "links": {
        "self": "http://www.neowsapp.com/rest/v1/neo/3455349?api_key=iIulBulltgU6a56xZRHN4H3l9WmuAYTsLGpBGhQ2"
    },
    "id": "3455349",
    "neo_reference_id": "3455349",
    "name": "(2009 FU30)",
    "designation": "2009 FU30",
    "nasa_jpl_url": "http://ssd.jpl.nasa.gov/sbdb.cgi?sstr=3455349",
    "absolute_magnitude_h": 24.9,
    "estimated_diameter": {
        "kilometers": {
            "estimated_diameter_min": 0.0278326768,
            "estimated_diameter_max": 0.0622357573
        },
        "meters": {
            "estimated_diameter_min": 27.8326768072,
            "estimated_diameter_max": 62.2357573367
        },
        "miles": {
            "estimated_diameter_min": 0.0172944182,
            "estimated_diameter_max": 0.0386714948
        },
        "feet": {
            "estimated_diameter_min": 91.3145593761,
            "estimated_diameter_max": 204.1855621004
        }
    },
    "is_potentially_hazardous_asteroid": false,
    "close_approach_data": [
        {
            "close_approach_date": "2009-04-02",
            "close_approach_date_full": "2009-Apr-02 06:16",
            "epoch_date_close_approach": 1238652960000,
            "relative_velocity": {
                "kilometers_per_second": "10.179437453",
                "kilometers_per_hour": "36645.9748306985",
                "miles_per_hour": "22770.3836385526"
            },
            "miss_distance": {
                "astronomical": "0.0226140625",
                "lunar": "8.7968703125",
                "kilometers": "3383015.582046875",
                "miles": "2102108.406621875"
            },
            "orbiting_body": "Earth"
        }
    ],
    "orbital_data": {
        "orbit_id": "10",
        "orbit_determination_date": "2017-04-06 09:00:52",
        "first_observation_date": "2009-03-28",
        "last_observation_date": "2009-04-03",
        "data_arc_in_days": 6,
        "observations_used": 36,
        "orbit_uncertainty": "8",
        "minimum_orbit_intersection": ".0106056",
        "jupiter_tisserand_invariant": "3.258",
        "epoch_osculation": "2454920.5",
        "eccentricity": ".5968534212288477",
        "semi_major_axis": "2.399718742962917",
        "inclination": ".8475344830410205",
        "ascending_node_longitude": "115.0368851252349",
        "orbital_period": "1357.809810486342",
        "perihelion_distance": ".9674384012385102",
        "perihelion_argument": "106.0599530482354",
        "aphelion_distance": "3.831999084687324",
        "perihelion_time": "2454945.677379086973",
        "mean_anomaly": "353.3246494455186",
        "mean_motion": ".2651328611855108",
        "equinox": "J2000",
        "orbit_class": {
            "orbit_class_type": "APO",
            "orbit_class_description": "Near-Earth asteroid orbits which cross the Earth’s orbit similar to that of 1862 Apollo",
            "orbit_class_range": "a (semi-major axis) > 1.0 AU; q (perihelion) < 1.017 AU"
        }
    },
    "is_sentry_object": false
}